NORAD_CAT_ID,OBJECT_NAME,OBJECT_TYPE,EPOCH,MEAN_MOTION,ECCENTRICITY,INCLINATION,RA_OF_ASC_NODE,ARG_OF_PERICENTER,MEAN_ANOMALY,BSTAR,MEAN_MOTION_DOT,MEAN_MOTION_DDOT,TLE_LINE0,TLE_LINE1,TLE_LINE2,SEMIMAJOR_AXIS,PERIOD,APOGEE,PERIGEE,DECAYED
55953.0,STARLINK-5889,PAYLOAD,2023-06-09 10:42:00,15.69928102,0.0003698,69.9992,305.7968,269.7572,90.32,1.7775e-05,1.925e-05,0.0,0 STARLINK-5889,1 55953U 23037AR  23160.44583907  .00001925  00000-0  17775-4 0  9992,2 55953  69.9992 305.7968 0003698 269.7572  90.3200 15.69928102 13321,6737.24,91.724,361.596,356.613,0.0
55953.0,STARLINK-5889,PAYLOAD,2023-06-10 09:38:17,15.69926063,0.000306,69.9995,303.1073,265.5523,94.5323,3.0204e-05,3.421e-05,0.0,0 STARLINK-5889,1 55953U 23037AR  23161.40158918  .00003421  00000-0  30204-4 0  9994,2 55953  69.9995 303.1073 0003060 265.5523  94.5323 15.69926063 13478,6737.246,91.724,361.172,357.049,0.0
55953.0,STARLINK-5889,PAYLOAD,2023-06-10 14:13:32,15.69926461,0.0003188,69.9993,302.5702,265.2436,94.8395,1.8582e-05,2.022e-05,0.0,0 STARLINK-5889,1 55953U 23037AR  23161.59273907  .00002022  00000-0  18582-4 0  9991,2 55953  69.9993 302.5702 0003188 265.2436  94.8395 15.69926461 13844,6737.244,91.724,361.257,356.962,0.0
55953.0,STARLINK-5889,PAYLOAD,2023-06-11 13:09:49,15.69921309,0.000329,69.999,299.8845,273.9083,86.1737,1.5851e-05,1.693e-05,0.0,0 STARLINK-5889,1 55953U 23037AR  23162.54849350  .00001693  00000-0  15851-4 0  9997,2 55953  69.9990 299.8845 0003290 273.9083  86.1737 15.69921309 13654,6737.259,91.724,361.341,356.908,0.0
55953.0,STARLINK-5889,PAYLOAD,2023-06-11 17:45:04,15.69931064,0.0003396,69.9986,299.3472,274.2815,85.7992,8.8452e-06,8.51e-06,0.0,0 STARLINK-5889,1 55953U 23037AR  23162.73963820  .00000851  00000-0  88452-5 0  9990,2 55953  69.9986 299.3472 0003396 274.2815  85.7992 15.69931064 14023,6737.231,91.724,361.384,356.808,0.0
55953.0,STARLINK-5889,PAYLOAD,2023-06-11 19:16:51,15.69907474,0.0003095,69.9989,299.1681,274.6917,85.3926,0.00011478,0.00013601,0.0,0 STARLINK-5889,1 55953U 23037AR  23162.80337015  .00013601  00000-0  11478-3 0  9998,2 55953  69.9989 299.1681 0003095 274.6917  85.3926 15.69907474 14031,6737.299,91.725,361.249,357.079,0.0
55953.0,STARLINK-5889,PAYLOAD,2023-06-12 15:09:36,15.69925385,0.0003382,69.9986,296.8396,274.1028,85.9781,7.036e-06,6.33e-06,0.0,0 STARLINK-5889,1 55953U 23037AR  23163.63167417  .00000633  00000-0  70360-5 0  9995,2 55953  69.9986 296.8396 0003382 274.1028  85.9781 15.69925385 14162,6737.247,91.724,361.391,356.834,0.0
55953.0,STARLINK-5889,PAYLOAD,2023-06-13 07:58:53,15.69920063,0.0003387,69.9974,294.8683,271.1435,88.9373,7.5832e-06,6.99e-06,0.0,0 STARLINK-5889,1 55953U 23037AR  23164.33256324  .00000699  00000-0  75832-5 0  9990,2 55953  69.9974 294.8683 0003387 271.1435  88.9373 15.69920063 14270,6737.263,91.724,361.41,356.846,0.0
55953.0,STARLINK-5889,PAYLOAD,2023-06-13 12:34:08,15.69920778,0.0003319,69.997,294.3301,270.3398,89.7417,7.0457e-06,6.34e-06,0.0,0 STARLINK-5889,1 55953U 23037AR  23164.52371305  .00000634  00000-0  70457-5 0  9995,2 55953  69.9970 294.3301 0003319 270.3398  89.7417 15.69920778 13968,6737.261,91.724,361.362,356.89,0.0
55953.0,STARLINK-5889,PAYLOAD,2023-06-14 08:26:55,15.69924783,0.0003361,69.9981,292.0013,266.0748,94.0063,1.0478e-05,1.047e-05,0.0,0 STARLINK-5889,1 55953U 23037AR  23165.35202812  .00001047  00000-0  10478-4 0  9998,2 55953  69.9981 292.0013 0003361 266.0748  94.0063 15.69924783 14432,6737.249,91.724,361.379,356.85,0.0
55953.0,STARLINK-5889,PAYLOAD,2023-06-14 19:09:11,15.69921818,0.000299,70.0,290.7483,259.1874,100.8985,2.0195e-05,2.216e-05,0.0,0 STARLINK-5889,1 55953U 23037AR  23165.79804617  .00002216  00000-0  20195-4 0  9993,2 55953  70.0000 290.7483 0002990 259.1874 100.8985 15.69921818 14168,6737.258,91.724,361.137,357.108,0.0
55953.0,STARLINK-5889,PAYLOAD,2023-06-15 01:16:12,15.69917432,0.0003259,69.9998,290.0316,269.1192,90.963,8.8382e-06,8.5e-06,0.0,0 STARLINK-5889,1 55953U 23037AR  23166.05291833  .00000850  00000-0  88382-5 0  9998,2 55953  69.9998 290.0316 0003259 269.1192  90.9630 15.69917432 14547,6737.27,91.725,361.331,356.94,0.0
55953.0,STARLINK-5889,PAYLOAD,2023-06-15 10:26:42,15.69918843,0.0003483,69.9988,288.957,267.006,93.0738,1.919e-05,2.095e-05,0.0,0 STARLINK-5889,1 55953U 23037AR  23166.43521449  .00002095  00000-0  19190-4 0  9992,2 55953  69.9988 288.9570 0003483 267.0060  93.0738 15.69918843 14263,6737.266,91.724,361.478,356.785,0.0
55953.0,STARLINK-5889,PAYLOAD,2023-06-15 18:05:27,15.69928608,0.0003391,69.9966,288.0582,270.5601,89.5206,1.5787e-05,1.686e-05,0.0,0 STARLINK-5889,1 55953U 23037AR  23166.75379250  .00001686  00000-0  15787-4 0  9991,2 55953  69.9966 288.0582 0003391 270.5601  89.5206 15.69928608 14654,6737.238,91.724,361.388,356.819,0.0
55953.0,STARLINK-5889,PAYLOAD,2023-06-16 13:58:13,15.69932745,0.0003528,69.997,285.7312,267.4417,92.6375,1.7846e-05,1.934e-05,0.0,0 STARLINK-5889,1 55953U 23037AR  23167.58210575  .00001934  00000-0  17846-4 0  9991,2 55953  69.9970 285.7312 0003528 267.4417  92.6375 15.69932745 14442,6737.226,91.724,361.468,356.715,0.0
55953.0,STARLINK-5889,PAYLOAD,2023-06-16 17:01:44,15.69928905,0.0003345,69.9991,285.3734,265.8443,94.237,1.9484e-05,2.131e-05,0.0,0 STARLINK-5889,1 55953U 23037AR  23167.70954232  .00002131  00000-0  19484-4 0  9990,2 55953  69.9991 285.3734 0003345 265.8443  94.2370 15.69928905 14465,6737.237,91.724,361.356,356.849,0.0
55953.0,STARLINK-5889,PAYLOAD,2023-06-17 06:47:31,15.6991165,0.0003384,70.0003,283.7615,274.0562,86.0247,-1.544e-05,-2.068e-05,0.0,0 STARLINK-5889,1 55953U 23037AR  23168.28300411 -.00002068  00000-0 -15440-4 0  9997,2 55953  70.0003 283.7615 0003384 274.0562  86.0247 15.69911650 14897,6737.287,91.725,361.432,356.872,0.0
55953.0,STARLINK-5889,PAYLOAD,2023-06-17 08:19:16,15.69913007,0.0003185,70.0005,283.5825,274.3041,85.779,-2.0726e-05,-2.703e-05,0.0,0 STARLINK-5889,1 55953U 23037AR  23168.34672086 -.00002703  00000-0 -20726-4 0  9993,2 55953  70.0005 283.5825 0003185 274.3041  85.7790 15.69913007 14565,6737.283,91.725,361.294,357.002,0.0
55953.0,STARLINK-5889,PAYLOAD,2023-06-17 14:26:16,15.69922085,0.0003188,70.0018,282.8667,269.532,90.551,9.9496e-06,9.84e-06,0.0,0 STARLINK-5889,1 55953U 23037AR  23168.60158423  .00000984  00000-0  99496-5 0  9994,2 55953  70.0018 282.8667 0003188 269.5320  90.5510 15.69922085 14946,6737.257,91.724,361.27,356.974,0.0
55953.0,STARLINK-5889,PAYLOAD,2023-06-17 15:58:01,15.69924235,0.000308,70.0014,282.6872,271.0464,89.0379,1.2438e-05,1.283e-05,0.0,0 STARLINK-5889,1 55953U 23037AR  23168.66530056  .00001283  00000-0  12438-4 0  9999,2 55953  70.0014 282.6872 0003080 271.0464  89.0379 15.69924235 14615,6737.251,91.724,361.191,357.041,0.0
55953.0,STARLINK-5889,PAYLOAD,2023-06-18 07:15:33,15.69927418,0.0003472,70.0002,280.8952,272.4636,87.6162,3.2221e-05,3.664e-05,0.0,0 STARLINK-5889,1 55953U 23037AR  23169.30246870  .00003664  00000-0  32221-4 0  9996,2 55953  70.0002 280.8952 0003472 272.4636  87.6162 15.69927418 14713,6737.242,91.724,361.446,356.767,0.0
55953.0,STARLINK-5889,PAYLOAD,2023-06-18 14:54:18,15.69929612,0.0003318,70.0006,279.9995,272.5777,87.5039,3.3263e-05,3.79e-05,0.0,0 STARLINK-5889,1 55953U 23037AR  23169.62104961  .00003790  00000-0  33263-4 0  9992,2 55953  70.0006 279.9995 0003318 272.5777  87.5039 15.69929612 15103,6737.235,91.724,361.336,356.865,0.0
55953.0,STARLINK-5889,PAYLOAD,2023-06-18 22:00:00,15.699552,0.0003516,70.0005,279.1674,273.4224,316.9646,-0.00068917,-0.00082381,0.0,0 STARLINK-5889,1 55953U 23037AR  23169.91667824 -.00082381  00000-0 -68917-3 0  9994,2 55953  70.0005 279.1674 0003516 273.4224 316.9646 15.69955200 15144,6737.162,91.722,361.396,356.658,0.0
55953.0,STARLINK-5889,PAYLOAD,2023-06-19 10:47:05,15.69921512,0.0003102,69.9989,277.6681,265.3916,94.6925,1.3417e-05,1.401e-05,0.0,0 STARLINK-5889,1 55953U 23037AR  23170.44937018  .00001401  00000-0  13417-4 0  9997,2 55953  69.9989 277.6681 0003102 265.3916  94.6925 15.69921512 15231,6737.259,91.724,361.213,357.034,0.0
55953.0,STARLINK-5889,PAYLOAD,2023-06-19 13:50:35,15.69928592,0.0003545,70.0003,277.3126,268.1921,91.8869,3.0437e-05,3.449e-05,0.0,0 STARLINK-5889,1 55953U 23037AR  23170.57679967  .00003449  00000-0  30437-4 0  9992,2 55953  70.0003 277.3126 0003545 268.1921  91.8869 15.69928592 14915,6737.238,91.724,361.492,356.715,0.0
55953.0,STARLINK-5889,PAYLOAD,2023-06-20 11:15:06,15.69935846,0.0004447,70.0016,274.8068,274.7376,85.3311,3.2391e-05,3.686e-05,0.0,0 STARLINK-5889,1 55953U 23037AR  23171.46882766  .00003686  00000-0  32391-4 0  9998,2 55953  70.0016 274.8068 0004447 274.7376  85.3311 15.69935846 15051,6737.218,91.723,362.079,356.087,0.0
55953.0,STARLINK-5889,PAYLOAD,2023-06-20 17:22:07,15.69929522,0.0004017,70.0013,274.0899,271.2495,88.8241,1.5078e-05,1.601e-05,0.0,0 STARLINK-5889,1 55953U 23037AR  23171.72369673  .00001601  00000-0  15078-4 0  9992,2 55953  70.0013 274.0899 0004017 271.2495  88.8241 15.69929522 15435,6737.236,91.724,361.807,356.394,0.0
55953.0,STARLINK-5889,PAYLOAD,2023-06-21 11:43:09,15.69920315,0.0003733,69.9974,271.9393,273.9719,86.105,7.6395e-06,7.06e-06,0.0,0 STARLINK-5889,1 55953U 23037AR  23172.48830513  .00000706  00000-0  76395-5 0  9997,2 55953  69.9974 271.9393 0003733 273.9719  86.1050 15.69920315 15558,6737.262,91.724,361.642,356.612,0.0
55953.0,STARLINK-5889,PAYLOAD,2023-06-21 13:14:54,15.69918959,0.0003699,69.9974,271.76,272.7669,87.3103,3.6352e-06,2.24e-06,0.0,0 STARLINK-5889,1 55953U 23037AR  23172.55202322  .00000224  00000-0  36352-5 0  9990,2 55953  69.9974 271.7600 0003699 272.7669  87.3103 15.69918959 15226,6737.266,91.724,361.623,356.639,0.0
55953.0,STARLINK-5889,PAYLOAD,2023-06-21 16:18:24,15.69922598,0.0003635,69.9977,271.4004,274.4749,85.6031,8.3444e-06,7.9e-06,0.0,0 STARLINK-5889,1 55953U 23037AR  23172.67945393  .00000790  00000-0  83444-5 0  9997,2 55953  69.9977 271.4004 0003635 274.4749  85.6031 15.69922598 15249,6737.255,91.724,361.569,356.671,0.0
